[{"OBJECT_NAME":"CELESTIS-02 & TAURUS R/B","OBJECT_ID":"1998-007D","EPOCH":"2026-03-07T15:29:06.633024","MEAN_MOTION":14.22452594,"ECCENTRICITY":0.00633257,"INCLINATION":108.0077,"RA_OF_ASC_NODE":127.3305,"ARG_OF_PERICENTER":305.4406,"MEAN_ANOMALY":180.4019,"EPHEMERIS_TYPE":0,"CLASSIFICATION_TYPE":"U","NORAD_CAT_ID":25160,"ELEMENT_SET_NO":999,"REV_AT_EPOCH":45607,"BSTAR":6.9368293e-5,"MEAN_MOTION_DOT":2.8e-7,"MEAN_MOTION_DDOT":0}]
